1998-067XU              
1 66908U 98067XU  26022.48651389  .00101804  00000+0  13320-2 0  9999
2 66908  51.6293 299.1343 0003309  99.1552 260.9815 15.57796220  7950
SILVERSAT               
1 66909U 98067XV  26022.47392867  .00112321  00000+0  14158-2 0  9998
2 66909  51.6293 299.0513 0003620 112.6606 247.4770 15.58739915  7955
1998-067XW              
1 66910U 98067XW  26022.02889738  .00103927  00000+0  13486-2 0  9994
2 66910  51.6293 301.3257 0002102  86.8684 273.2549 15.58009470  7880
1998-067XX              
1 66911U 98067XX  26022.00747579  .00139644  00000+0  16952-2 0  9995
2 66911  51.6279 301.1834 0002385 115.6769 244.4470 15.59622931  7878
1998-067XY              
1 66912U 98067XY  26021.99985869  .00081461  00000+0  11445-2 0  9994
2 66912  51.6304 301.8855 0003066  79.5565 280.5771 15.55982915  7868
